[Satellite]
VERSION=1.1
NAME=STARLINK-5248
NICKNAME=STARLINK-5248
TLE1=1 54174U 22141T   22321.58334491 -.00089149  00000+0 -63600-3 0  9998
TLE2=2 54174  53.2166  41.4674 0001949  27.7093 119.2392 15.73253102  1303
STATUS=0
